{"type": "FeatureCollection", "features": [ {"type": "Feature", "properties": {"norad_id": 44804, "name": "CARTOSAT-3", "group": "resource", "lat": -8.17286773001275, "lon": -123.32002037072384, "alt_km": 519.6000698188236, "timestamp": "2025-12-24T07:45:05.856619+00:00", "meta": {"OBJECT_NAME": "CARTOSAT-3", "OBJECT_ID": "2019-081A", "EPOCH": "2025-12-23T23:01:24.199968", "MEAN_MOTION": 15.19242449, "ECCENTRICITY": 0.00137617, "INCLINATION": 97.4567, "RA_OF_ASC_NODE": 57.3988, "ARG_OF_PERICENTER": 48.0784, "MEAN_ANOMALY": 312.1622, "EPHEMERIS_TYPE": 0, "CLASSIFICATION_TYPE": "U", "NORAD_CAT_ID": 44804, "ELEMENT_SET_NO": 999, "REV_AT_EPOCH": 33686, "BSTAR": 0.0001892549, "MEAN_MOTION_DOT": 3.928e-05, "MEAN_MOTION_DDOT": 0}, "tle": {"line1": "1 44804U 19081A   25357.95930787  .00003928  00000+0  18925-3 0  9998", "line2": "2 44804  97.4567  57.3988 0013761  48.0784 312.1622 15.19242449336863"}}, "geometry": {"type": "Point", "coordinates": [-123.32002037072384, -8.17286773001275]}}, {"type": "Feature", "properties": {"norad_id": 44819, "name": "GAOFEN-12 01", "group": "resource", "lat": 51.82165069163351, "lon": -165.64412690294367, "alt_km": 621.5425373622566, "timestamp": "2025-12-24T07:45:05.856629+00:00", "meta": {"OBJECT_NAME": "GAOFEN-12 01", "OBJECT_ID": "2019-082A", "EPOCH": "2025-12-23T23:04:07.051008", "MEAN_MOTION": 14.80669823, "ECCENTRICITY": 0.00021164, "INCLINATION": 97.8125, "RA_OF_ASC_NODE": 3.9476, "ARG_OF_PERICENTER": 182.5989, "MEAN_ANOMALY": 177.5213, "EPHEMERIS_TYPE": 0, "CLASSIFICATION_TYPE": "U", "NORAD_CAT_ID": 44819, "ELEMENT_SET_NO": 999, "REV_AT_EPOCH": 32816, "BSTAR": 6.8635273e-05, "MEAN_MOTION_DOT": 4.77e-06, "MEAN_MOTION_DDOT": 0}, "tle": {"line1": "1 44819U 19082A   25357.96119272  .00000477  00000+0  68635-4 0  9994", "line2": "2 44819  97.8125   3.9476 0002116 182.5989 177.5213 14.80669823328164"}}, "geometry": {"type": "Point", "coordinates": [-165.64412690294367, 51.82165069163351]}}, {"type": "Feature", "properties": {"norad_id": 44873, "name": "CSG-1", "group": "resource", "lat": -58.67735240010875, "lon": -167.37149959945302, "alt_km": 630.4824705475921, "timestamp": "2025-12-24T07:45:05.856640+00:00", "meta": {"OBJECT_NAME": "CSG-1", "OBJECT_ID": "2019-092A", "EPOCH": "2025-12-23T23:55:07.853088", "MEAN_MOTION": 14.82158912, "ECCENTRICITY": 0.00014777, "INCLINATION": 97.8805, "RA_OF_ASC_NODE": 179.1512, "ARG_OF_PERICENTER": 85.7416, "MEAN_ANOMALY": 274.3966, "EPHEMERIS_TYPE": 0, "CLASSIFICATION_TYPE": "U", "NORAD_CAT_ID": 44873, "ELEMENT_SET_NO": 999, "REV_AT_EPOCH": 32552, "BSTAR": 6.6146527e-05, "MEAN_MOTION_DOT": 4.75e-06, "MEAN_MOTION_DDOT": 0}, "tle": {"line1": "1 44873U 19092A   25357.99661867  .00000475  00000+0  66147-4 0  9994", "line2": "2 44873  97.8805 179.1512 0001477  85.7416 274.3966 14.82158912325526"}}, "geometry": {"type": "Point", "coordinates": [-167.37149959945302, -58.67735240010875]}}, {"type": "Feature", "properties": {"norad_id": 46277, "name": "NEMO-HD", "group": "resource", "lat": 5.509867028158987, "lon": 56.573310748411544, "alt_km": 446.28600700649804, "timestamp": "2025-12-24T07:45:05.856650+00:00", "meta": {"OBJECT_NAME": "NEMO-HD", "OBJECT_ID": "2020-061F", "EPOCH": "2025-12-23T22:22:27.062688", "MEAN_MOTION": 15.40548543, "ECCENTRICITY": 0.00011521, "INCLINATION": 97.219, "RA_OF_ASC_NODE": 56.8881, "ARG_OF_PERICENTER": 52.5211, "MEAN_ANOMALY": 307.614, "EPHEMERIS_TYPE": 0, "CLASSIFICATION_TYPE": "U", "NORAD_CAT_ID": 46277, "ELEMENT_SET_NO": 999, "REV_AT_EPOCH": 29496, "BSTAR": 0.00027492824, "MEAN_MOTION_DOT": 0.0001109, "MEAN_MOTION_DDOT": 0}, "tle": {"line1": "1 46277U 20061F   25357.93225767  .00011090  00000+0  27493-3 0  9996", "line2": "2 46277  97.2190  56.8881 0001152  52.5211 307.6140 15.40548543294967"}}, "geometry": {"type": "Point", "coordinates": [56.573310748411544, 5.509867028158987]}}, {"type": "Feature", "properties": {"norad_id": 46984, "name": "SENTINEL-6A", "group": "resource", "lat": -43.034157605847, "lon": -17.222816338681742, "alt_km": 1338.8982007402774, "timestamp": "2025-12-24T07:45:05.856660+00:00", "meta": {"OBJECT_NAME": "SENTINEL-6A", "OBJECT_ID": "2020-086A", "EPOCH": "2025-12-23T19:19:13.530144", "MEAN_MOTION": 12.80930767, "ECCENTRICITY": 0.00077496, "INCLINATION": 66.0398, "RA_OF_ASC_NODE": 139.3251, "ARG_OF_PERICENTER": 269.3952, "MEAN_ANOMALY": 90.6175, "EPHEMERIS_TYPE": 0, "CLASSIFICATION_TYPE": "U", "NORAD_CAT_ID": 46984, "ELEMENT_SET_NO": 999, "REV_AT_EPOCH": 23786, "BSTAR": -6.596775e-06, "MEAN_MOTION_DOT": -6.3e-07, "MEAN_MOTION_DDOT": 0}, "tle": {"line1": "1 46984U 20086A   25357.80501771 -.00000063  00000+0 -65968-5 0  9997", "line2": "2 46984  66.0398 139.3251 0007749 269.3952  90.6175 12.80930767237869"}}, "geometry": {"type": "Point", "coordinates": [-17.222816338681742, -43.034157605847]}}, {"type": "Feature", "properties": {"norad_id": 48079, "name": "GAOFEN-12 02", "group": "resource", "lat": 39.75910322837328, "lon": 178.9807064268172, "alt_km": 622.9407460984758, "timestamp": "2025-12-24T07:45:05.856670+00:00", "meta": {"OBJECT_NAME": "GAOFEN-12 02", "OBJECT_ID": "2021-026A", "EPOCH": "2025-12-23T23:00:50.186880", "MEAN_MOTION": 14.8068788, "ECCENTRICITY": 0.00035651, "INCLINATION": 97.9857, "RA_OF_ASC_NODE": 351.9114, "ARG_OF_PERICENTER": 78.6024, "MEAN_ANOMALY": 281.5588, "EPHEMERIS_TYPE": 0, "CLASSIFICATION_TYPE": "U", "NORAD_CAT_ID": 48079, "ELEMENT_SET_NO": 999, "REV_AT_EPOCH": 25583, "BSTAR": 7.0329768e-05, "MEAN_MOTION_DOT": 4.88e-06, "MEAN_MOTION_DDOT": 0}, "tle": {"line1": "1 48079U 21026A   25357.95891420  .00000488  00000+0  70330-4 0  9995", "line2": "2 48079  97.9857 351.9114 0003565  78.6024 281.5588 14.80687880255835"}}, "geometry": {"type": "Point", "coordinates": [178.9807064268172, 39.75910322837328]}}, {"type": "Feature", "properties": {"norad_id": 48268, "name": "PLEIADES NEO 3", "group": "resource", "lat": -66.54045545076133, "lon": -128.04973434820243, "alt_km": 632.1932440197888, "timestamp": "2025-12-24T07:45:05.856709+00:00", "meta": {"OBJECT_NAME": "PLEIADES NEO 3", "OBJECT_ID": "2021-034A", "EPOCH": "2025-12-23T22:31:57.925632", "MEAN_MOTION": 14.81669314, "ECCENTRICITY": 0.00013413, "INCLINATION": 97.8947, "RA_OF_ASC_NODE": 70.2192, "ARG_OF_PERICENTER": 88.745, "MEAN_ANOMALY": 271.3917, "EPHEMERIS_TYPE": 0, "CLASSIFICATION_TYPE": "U", "NORAD_CAT_ID": 48268, "ELEMENT_SET_NO": 999, "REV_AT_EPOCH": 25170, "BSTAR": -7.1461661e-05, "MEAN_MOTION_DOT": -6.14e-06, "MEAN_MOTION_DDOT": 0}, "tle": {"line1": "1 48268U 21034A   25357.93886488 -.00000614  00000+0 -71462-4 0  9990", "line2": "2 48268  97.8947  70.2192 0001341  88.7450 271.3917 14.81669314251704"}}, "geometry": {"type": "Point", "coordinates": [-128.04973434820243, -66.54045545076133]}}, {"type": "Feature", "properties": {"norad_id": 49070, "name": "PLEIADES NEO 4", "group": "resource", "lat": 66.50690425262947, "lon": 51.97655739397564, "alt_km": 616.8051272699049, "timestamp": "2025-12-24T07:45:05.856727+00:00", "meta": {"OBJECT_NAME": "PLEIADES NEO 4", "OBJECT_ID": "2021-073E", "EPOCH": "2025-12-24T02:35:03.876864", "MEAN_MOTION": 14.816706, "ECCENTRICITY": 0.000125, "INCLINATION": 97.8949, "RA_OF_ASC_NODE": 70.3814, "ARG_OF_PERICENTER": 96.6089, "MEAN_ANOMALY": 263.5266, "EPHEMERIS_TYPE": 0, "CLASSIFICATION_TYPE": "U", "NORAD_CAT_ID": 49070, "ELEMENT_SET_NO": 999, "REV_AT_EPOCH": 23544, "BSTAR": -2.2537e-05, "MEAN_MOTION_DOT": -2.29e-06, "MEAN_MOTION_DDOT": 0}, "tle": {"line1": "1 49070U 21073E   25358.10768376 -.00000229  00000+0 -22537-4 0  9991", "line2": "2 49070  97.8949  70.3814 0001250  96.6089 263.5266 14.81670600235448"}}, "geometry": {"type": "Point", "coordinates": [51.97655739397564, 66.50690425262947]}}, {"type": "Feature", "properties": {"norad_id": 49260, "name": "LANDSAT 9", "group": "resource", "lat": 37.68275401735146, "lon": -107.33355540102714, "alt_km": 699.280396482779, "timestamp": "2025-12-24T07:45:05.856738+00:00", "meta": {"OBJECT_NAME": "LANDSAT 9", "OBJECT_ID": "2021-088A", "EPOCH": "2025-12-23T14:37:21.152640", "MEAN_MOTION": 14.571086, "ECCENTRICITY": 0.00011037, "INCLINATION": 98.208, "RA_OF_ASC_NODE": 65.5621, "ARG_OF_PERICENTER": 92.891, "MEAN_ANOMALY": 267.2415, "EPHEMERIS_TYPE": 0, "CLASSIFICATION_TYPE": "U", "NORAD_CAT_ID": 49260, "ELEMENT_SET_NO": 999, "REV_AT_EPOCH": 22543, "BSTAR": 0.00010089577, "MEAN_MOTION_DOT": 4.09e-06, "MEAN_MOTION_DDOT": 0}, "tle": {"line1": "1 49260U 21088A   25357.60927260  .00000409  00000+0  10090-3 0  9999", "line2": "2 49260  98.2080  65.5621 0001103  92.8910 267.2415 14.57108600225434"}}, "geometry": {"type": "Point", "coordinates": [-107.33355540102714, 37.68275401735146]}}, {"type": "Feature", "properties": {"norad_id": 51444, "name": "CSG-2", "group": "resource", "lat": 58.53683255046837, "lon": 12.553054042556624, "alt_km": 616.0830902466723, "timestamp": "2025-12-24T07:45:05.856749+00:00", "meta": {"OBJECT_NAME": "CSG-2", "OBJECT_ID": "2022-008A", "EPOCH": "2025-12-23T23:06:31.313952", "MEAN_MOTION": 14.82155666, "ECCENTRICITY": 0.00015018, "INCLINATION": 97.8802, "RA_OF_ASC_NODE": 179.1167, "ARG_OF_PERICENTER": 81.4177, "MEAN_ANOMALY": 278.7206, "EPHEMERIS_TYPE": 0, "CLASSIFICATION_TYPE": "U", "NORAD_CAT_ID": 51444, "ELEMENT_SET_NO": 999, "REV_AT_EPOCH": 21063, "BSTAR": 7.7496381e-05, "MEAN_MOTION_DOT": 5.65e-06, "MEAN_MOTION_DDOT": 0}, "tle": {"line1": "1 51444U 22008A   25357.96286243  .00000565  00000+0  77496-4 0  9994", "line2": "2 51444  97.8802 179.1167 0001501  81.4177 278.7206 14.82155666210639"}}, "geometry": {"type": "Point", "coordinates": [12.553054042556624, 58.53683255046837]}}]}